OBJECT_NAME,OBJECT_ID,EPOCH,MEAN_MOTION,ECCENTRICITY,INCLINATION,RA_OF_ASC_NODE,ARG_OF_PERICENTER,MEAN_ANOMALY,EPHEMERIS_TYPE,CLASSIFICATION_TYPE,NORAD_CAT_ID,ELEMENT_SET_NO,REV_AT_EPOCH,BSTAR,MEAN_MOTION_DOT,MEAN_MOTION_DDOT
INTELSAT 21 (IS-21),2012-045A,2026-06-08T02:50:28.267008,1.00272147,.0001988,0.0454,87.4997,357.4252,156.2239,0,U,38749,999,5043,0,-.269E-5,0
INTELSAT 23 (IS-23),2012-057A,2026-06-08T02:51:50.634720,1.00275413,.0000532,0.0073,323.5633,130.9461,151.9704,0,U,38867,999,4986,0,-.269E-5,0
FM-6,2013-058A,2026-06-07T11:09:47.147328,1.00260608,.0001559,0.0094,45.4890,95.5877,165.8953,0,U,39360,999,4597,0,0,0
INTELSAT 30 (IS-30),2014-062A,2026-06-07T12:58:30.649728,1.00271823,.0001065,0.0218,41.9024,4.4015,309.1838,0,U,40271,999,669,0,-.136E-5,0
DIRECTV 14,2014-078B,2026-06-07T14:40:04.078848,1.00270219,.000049,0.0091,355.2151,185.8588,195.7159,0,U,40333,999,4194,0,-.111E-5,0
DIRECTV 15,2015-026A,2026-06-07T11:16:38.235936,1.00271546,.000043,0.0180,0.9006,228.5203,92.7414,0,U,40663,999,4036,0,-.88E-6,0
SKY MEXICO-1,2015-026B,2026-06-07T21:36:17.197056,1.00271594,.0002227,0.0186,55.5942,39.0663,46.9150,0,U,40664,999,4036,0,-.219E-5,0
INTELSAT 34 (IS-34),2015-039A,2026-06-07T18:17:49.953408,1.00271453,.0000525,0.0104,319.7013,42.0234,113.4137,0,U,40874,999,3954,0,-.27E-5,0
INTELSAT 31 (IS-31),2016-035A,2026-06-07T09:33:16.570080,1.00271889,.0000826,0.0186,259.0986,334.9690,70.0155,0,U,41581,999,3658,0,-.137E-5,0
INTELSAT 36 (IS-36),2016-053A,2026-06-07T12:02:27.926304,1.00271488,.0001812,0.0098,351.0872,347.2262,166.7081,0,U,41747,999,3586,0,-.1E-6,0
INTELSAT 32E (IS-32E),2017-007B,2026-06-07T18:21:19.616832,1.00270608,.0000678,0.0010,354.1974,347.1216,147.0062,0,U,41945,999,3413,0,-.254E-5,0
INTELSAT 35E (IS-35E),2017-041A,2026-06-07T16:41:08.837088,1.00272821,.0001842,0.0202,62.5317,13.9992,35.3772,0,U,42818,999,3272,0,-.223E-5,0
INTELSAT 37E (IS-37E),2017-059A,2026-06-08T03:07:38.536896,1.00268330,.0002401,0.0181,345.8268,116.5219,183.0883,0,U,42950,999,3197,0,0,0
AZERSPACE 2 (IS-38),2018-074A,2026-06-08T03:19:47.656128,1.00271189,.000146,0.0198,322.6461,110.9689,277.9789,0,U,43632,999,2835,0,.152E-5,0
HORIZONS-3E,2018-074B,2026-06-07T19:21:49.215168,1.00272627,.0000822,0.0033,245.6704,32.8636,77.1255,0,U,43633,999,2824,0,-.15E-6,0
AT&T T-16,2019-034A,2026-06-07T09:31:31.738368,1.00271029,.0000497,0.0211,62.8087,205.3448,29.6836,0,U,44333,999,2553,0,-.101E-5,0
INTELSAT 39 (IS-39),2019-049B,2026-06-08T03:33:38.729088,1.00270743,.0000767,0.0182,316.2579,2.4219,53.2314,0,U,44476,999,2503,0,.49E-6,0
GALAXY 30 (G-30),2020-056C,2026-06-07T23:05:58.462080,1.00272767,.0002238,0.0178,358.1248,76.5119,43.2111,0,U,46114,999,2120,0,.52E-6,0
GALAXY 33 (G-33),2022-128A,2026-06-07T23:03:28.702368,1.00272465,.0001862,0.0268,59.3528,17.6781,32.2136,0,U,54026,999,1365,0,.94E-6,0
GALAXY 34 (G-34),2022-128B,2026-06-07T16:14:12.484032,1.00276145,.0001938,0.0089,327.1058,125.3238,278.2116,0,U,54027,999,1381,0,.73E-6,0
GALAXY 31 (G-31),2022-153A,2026-06-07T23:07:05.854080,1.00272365,.0001332,0.0335,108.2861,329.9549,43.8995,0,U,54243,999,704,0,.28E-6,0
GALAXY 32 (G-32),2022-153B,2026-06-08T00:58:21.734976,1.00271351,.0002245,0.0086,329.1340,68.3274,142.5722,0,U,54244,999,1305,0,-.159E-5,0
GALAXY 35 (G-35),2022-170A,2026-06-08T00:57:44.295264,1.00271576,.0002106,0.0236,83.2178,357.0023,97.5581,0,U,54741,999,1280,0,-.147E-5,0
GALAXY 36 (G-36),2022-170B,2026-06-07T21:33:39.949056,1.00271342,.0002734,0.0133,160.1129,282.2559,48.3522,0,U,54742,999,1268,0,-.17E-5,0
GALAXY 37 (G-37),2023-112A,2026-06-08T02:30:47.299104,1.00271711,.0002012,0.0184,336.1835,101.2872,89.7311,0,U,57493,999,1045,0,.63E-6,0
